ONEWEB-0159             
1 48062U 21025W   25347.54615031  .00000241  00000+0  62626-3 0  9997
2 48062  87.8986 357.1001 0001491  92.4305 267.6995 13.13471579229236
ONEWEB-0164             
1 48063U 21025X   25347.52751986 -.00000244  00000+0 -70378-3 0  9994
2 48063  87.8988 357.1106 0001849  90.7265 269.4076 13.13471563229219
ONEWEB-0167             
1 48064U 21025Y   25347.55547523  .00000323  00000+0  84849-3 0  9992
2 48064  87.8977 357.1325 0001664  66.6438 293.4866 13.13469340229203
ONEWEB-0166             
1 48065U 21025Z   25347.50213292  .00000106  00000+0  25525-3 0  9996
2 48065  87.8985 357.0995 0001583  95.4560 264.6749 13.13471199229273
ONEWEB-0151             
1 48066U 21025AA  25347.50382772  .00000041  00000+0  76457-4 0  9996
2 48066  87.8987 357.1255 0001750  86.1705 273.9624 13.13470858229210
ONEWEB-0170             
1 48067U 21025AB  25347.58846309 -.00000138  00000+0 -41290-3 0  9991
2 48067  87.8980 357.1135 0002145  83.4801 276.6572 13.13471327229187
ONEWEB-0168             
1 48068U 21025AC  25347.49705615  .00000205  00000+0  52675-3 0  9998
2 48068  87.8989 357.1169 0001549  90.0615 270.0691 13.13471577229185
ONEWEB-0173             
1 48069U 21025AD  25347.48859252  .00000316  00000+0  82955-3 0  9992
2 48069  87.8989 357.1263 0001443  79.9077 280.2215 13.13471578229425
